location,neighborhood_short,neigbhorhood_long,council_district,zipcode,urban_village,geographical_area,latitude,longitude
530330001001,Cedar Park,LAKE CITY,SCC5,98125,None,Seattle,-122.28469,47.72683
530330001002,Olympic Hills,LAKE CITY,SCC5,98125,None,Seattle,-122.29247,47.72932
530330001003,Cedar Park,LAKE CITY,SCC5,98125,None,Seattle,-122.28945,47.722809999999996
530330001004,Olympic Hills,LAKE CITY,SCC5,98125,None,Seattle,-122.29445,47.73194
530330001005,Olympic Hills,LAKE CITY,SCC5,98125,None,Seattle,-122.29444,47.72293
530330002001,Olympic Hills,LAKE CITY,SCC5,98125,None,Seattle,-122.29892,47.72909
530330002002,Olympic Hills,LAKE CITY,SCC5,98125,None,Seattle,-122.30283,47.721790000000006
530330002003,Pinehurst,NORTHGATE,SCC5,98125,None,Seattle,-122.31903,47.72793
530330002004,Olympic Hills,LAKE CITY,SCC5,98125,None,Seattle,-122.31018,47.72866
530330002005,Pinehurst,NORTHGATE,SCC5,98125,None,Seattle,-122.31391,47.72274
530330002006,Olympic Hills,LAKE CITY,SCC5,98125,None,Seattle,-122.30468,47.72922
530330003001,Haller Lake,NORTHGATE,SCC5,98125,None,Seattle,-122.3289,47.73007
530330003002,Haller Lake,NORTHGATE,SCC5,98133,None,Seattle,-122.34043,47.73138
530330004011,Bitter Lake,NO BROADER TERM,SCC5,98133,Bitter Lake Village,Seattle,-122.34948999999999,47.73015
530330004012,Broadview,NO BROADER TERM,SCC5,98177,None,Seattle,-122.35825,47.72959
530330004013,Bitter Lake,NO BROADER TERM,SCC5,98133,Bitter Lake Village,Seattle,-122.35186999999999,47.7258
530330004021,Broadview,NO BROADER TERM,SCC5,98133,None,Seattle,-122.35564,47.72234
530330004022,Bitter Lake,NO BROADER TERM,SCC5,98133,None,Seattle,-122.34755,47.71487
530330004023,Broadview,NO BROADER TERM,SCC5,98133,None,Seattle,-122.35556000000001,47.71416
530330004024,Broadview,NO BROADER TERM,SCC5,98133,None,Seattle,-122.35615,47.71835
530330005001,Broadview,NO BROADER TERM,SCC5,98177,None,Seattle,-122.36979,47.72437
530330005002,Broadview,NO BROADER TERM,SCC5,98177,None,Seattle,-122.36365,47.7206
530330005003,Broadview,NO BROADER TERM,SCC5,98177,None,Seattle,-122.36628999999999,47.71526
530330006001,Haller Lake,NORTHGATE,SCC5,98133,None,Seattle,-122.33652,47.725120000000004
530330006002,Pinehurst,NORTHGATE,SCC5,98125,None,Seattle,-122.31526000000001,47.7149
530330006003,Haller Lake,NORTHGATE,SCC5,98133,None,Seattle,-122.33811000000001,47.718720000000005
530330006004,Haller Lake,NORTHGATE,SCC5,98133,None,Seattle,-122.33713,47.71208
530330006005,Haller Lake,NORTHGATE,SCC5,98125,None,Seattle,-122.32558999999999,47.71775
530330006006,Pinehurst,NORTHGATE,SCC5,98125,None,Seattle,-122.31905,47.71607
530330007001,Cedar Park,LAKE CITY,SCC5,98125,Lake City,Seattle,-122.2946,47.71744
530330007002,Meadowbrook,LAKE CITY,SCC5,98125,None,Seattle,-122.29738,47.71478
530330007003,Victory Heights,LAKE CITY,SCC5,98125,None,Seattle,-122.30723,47.71756
530330007004,Victory Heights,LAKE CITY,SCC5,98125,None,Seattle,-122.30713999999999,47.71393
530330008001,Matthews Beach,LAKE CITY,SCC5,98125,None,Seattle,-122.28715,47.71539
530330008002,Matthews Beach,LAKE CITY,SCC5,98125,None,Seattle,-122.28528999999999,47.70817
530330009001,Matthews Beach,LAKE CITY,SCC5,98125,None,Seattle,-122.27963000000001,47.7128
530330009002,Matthews Beach,LAKE CITY,SCC5,98125,None,Seattle,-122.27525,47.70142
530330010001,Meadowbrook,LAKE CITY,SCC5,98125,None,Seattle,-122.29631,47.70961
530330010002,Meadowbrook,LAKE CITY,SCC5,98125,None,Seattle,-122.29591,47.704370000000004
530330011001,Victory Heights,LAKE CITY,SCC5,98125,None,Seattle,-122.30572,47.70928
530330011002,Victory Heights,LAKE CITY,SCC5,98125,None,Seattle,-122.30779,47.70407
530330012001,Maple Leaf,NORTHGATE,SCC5,98125,None,Seattle,-122.31511,47.70674
530330012002,Maple Leaf,NORTHGATE,SCC5,98125,None,Seattle,-122.32002,47.70433
530330012003,Pinehurst,NORTHGATE,SCC5,98125,Northgate,Seattle,-122.32103000000001,47.70919
530330012004,Maple Leaf,NORTHGATE,SCC5,98125,Northgate,Seattle,-122.32643999999999,47.70752
530330012005,North College Park,NORTHGATE,SCC5,98133,Northgate,Seattle,-122.33162,47.7076
530330013001,North College Park,NORTHGATE,SCC5,98133,None,Seattle,-122.33786,47.70284
530330013002,Greenwood,NO BROADER TERM,SCC5,98133,Aurora-Licton Springs,Seattle,-122.34603,47.70482
530330013003,Greenwood,NO BROADER TERM,SCC5,98103,Aurora-Licton Springs,Seattle,-122.34504,47.70017
530330014001,Broadview,NO BROADER TERM,SCC5,98133,None,Seattle,-122.3555,47.71053
530330014002,Broadview,NO BROADER TERM,SCC5,98177,None,Seattle,-122.35855,47.70709
530330014003,Greenwood,NO BROADER TERM,SCC6,98177,None,Seattle,-122.36431,47.702870000000004
530330014004,North Beach/Blue Ridge,NO BROADER TERM,SCC5,98177,None,Seattle,-122.37207,47.705859999999994
530330015001,North Beach/Blue Ridge,NO BROADER TERM,SCC6,98117,None,Seattle,-122.39053999999999,47.6962
530330015002,North Beach/Blue Ridge,NO BROADER TERM,SCC6,98117,None,Seattle,-122.39705,47.69534
530330016001,North Beach/Blue Ridge,NO BROADER TERM,SCC6,98177,None,Seattle,-122.37971999999999,47.70374
530330016002,North Beach/Blue Ridge,NO BROADER TERM,SCC6,98117,None,Seattle,-122.3833,47.6964
530330016003,Crown Hill,NO BROADER TERM,SCC6,98117,Crown Hill,Seattle,-122.37795,47.693329999999996
530330017011,Greenwood,NO BROADER TERM,SCC6,98103,Greenwood-Phinney Ridge,Seattle,-122.35763,47.692190000000004
530330017012,Greenwood,NO BROADER TERM,SCC5,98103,None,Seattle,-122.35253,47.695840000000004
530330017013,Greenwood,NO BROADER TERM,SCC5,98133,None,Seattle,-122.35288999999999,47.70208
530330017021,Greenwood,NO BROADER TERM,SCC6,98117,None,Seattle,-122.35744,47.69928
530330017022,Crown Hill,NO BROADER TERM,SCC6,98117,None,Seattle,-122.36872,47.69245
530330017023,Crown Hill,NO BROADER TERM,SCC6,98117,None,Seattle,-122.36841000000001,47.69638
530330017024,Greenwood,NO BROADER TERM,SCC6,98117,None,Seattle,-122.36197,47.69784
530330018001,North College Park,NORTHGATE,SCC5,98103,Aurora-Licton Springs,Seattle,-122.33757,47.6942
530330018002,North College Park,NORTHGATE,SCC5,98103,Aurora-Licton Springs,Seattle,-122.34438,47.69222
530330018003,Greenwood,NO BROADER TERM,SCC5,98103,Aurora-Licton Springs,Seattle,-122.34656000000001,47.695409999999995
530330019001,Maple Leaf,NORTHGATE,SCC5,98115,Northgate,Seattle,-122.32803999999999,47.699490000000004
530330019002,Maple Leaf,NORTHGATE,SCC5,98115,None,Seattle,-122.32033,47.69495
530330019003,Maple Leaf,NORTHGATE,SCC5,98115,None,Seattle,-122.32836999999999,47.69321
530330020001,Maple Leaf,NORTHGATE,SCC5,98115,None,Seattle,-122.30993000000001,47.69393
530330020002,Maple Leaf,NORTHGATE,SCC5,98115,None,Seattle,-122.31356000000001,47.69899
530330020003,Maple Leaf,NORTHGATE,SCC5,98115,None,Seattle,-122.31395,47.69465
530330021001,Wedgwood,NO BROADER TERM,SCC5,98115,None,Seattle,-122.29393,47.696259999999995
530330021002,Meadowbrook,LAKE CITY,SCC5,98115,None,Seattle,-122.30073,47.69753
530330021003,Wedgwood,NO BROADER TERM,SCC5,98115,None,Seattle,-122.30116000000001,47.69249
530330022001,Matthews Beach,LAKE CITY,SCC5,98115,None,Seattle,-122.28346,47.70178
530330022002,Wedgwood,NO BROADER TERM,SCC5,98115,None,Seattle,-122.28617,47.69625
530330022003,Matthews Beach,LAKE CITY,SCC5,98115,None,Seattle,-122.2795,47.693000000000005
530330022004,View Ridge,NO BROADER TERM,SCC4,98115,None,Seattle,-122.27278999999999,47.68734
530330024001,Wedgwood,NO BROADER TERM,SCC4,98115,None,Seattle,-122.28459,47.687979999999996
530330024002,Wedgwood,NO BROADER TERM,SCC4,98115,None,Seattle,-122.28483999999999,47.68444
530330024003,Wedgwood,NO BROADER TERM,SCC4,98115,None,Seattle,-122.29266000000001,47.68633
530330025001,Ravenna,NO BROADER TERM,SCC4,98115,None,Seattle,-122.30147,47.68651
530330025002,Ravenna,NO BROADER TERM,SCC4,98115,None,Seattle,-122.30366000000001,47.67941
530330026001,Roosevelt,NO BROADER TERM,SCC4,98115,None,Seattle,-122.30949,47.68759
530330026002,Ravenna,NO BROADER TERM,SCC4,98115,None,Seattle,-122.31151000000001,47.681779999999996
530330026003,Roosevelt,NO BROADER TERM,SCC4,98115,Roosevelt,Seattle,-122.31200000000001,47.677620000000005
530330026004,Roosevelt,NO BROADER TERM,SCC4,98115,None,Seattle,-122.31471,47.686040000000006
530330027001,Roosevelt,NO BROADER TERM,SCC4,98115,None,Seattle,-122.32065,47.687090000000005
530330027002,Green Lake,NO BROADER TERM,SCC6,98115,None,Seattle,-122.32789,47.68671
530330027003,Green Lake,NO BROADER TERM,SCC6,98103,None,Seattle,-122.33448999999999,47.687129999999996
530330027004,Green Lake,NO BROADER TERM,SCC6,98103,None,Seattle,-122.34151000000001,47.68667
530330028001,Greenwood,NO BROADER TERM,SCC6,98103,None,Seattle,-122.3499,47.68548
530330028002,Phinney Ridge,NO BROADER TERM,SCC6,98103,None,Seattle,-122.34986,47.68291
530330028003,Phinney Ridge,NO BROADER TERM,SCC6,98103,None,Seattle,-122.35003,47.68073
530330028004,Greenwood,NO BROADER TERM,SCC6,98103,None,Seattle,-122.34991000000001,47.688759999999995
530330029001,Greenwood,NO BROADER TERM,SCC6,98117,None,Seattle,-122.3604,47.68858
530330029002,Phinney Ridge,NO BROADER TERM,SCC6,98117,None,Seattle,-122.35835,47.68266
530330029003,Greenwood,NO BROADER TERM,SCC6,98117,None,Seattle,-122.36352,47.68354
530330030001,Whittier Heights,BALLARD,SCC6,98117,None,Seattle,-122.36818999999998,47.6851
530330030002,Whittier Heights,BALLARD,SCC6,98117,Crown Hill,Seattle,-122.37629,47.68875
530330030003,Whittier Heights,BALLARD,SCC6,98117,None,Seattle,-122.3736,47.68323
530330030004,Loyal Heights,BALLARD,SCC6,98117,None,Seattle,-122.37943999999999,47.68323
530330031001,Loyal Heights,BALLARD,SCC6,98117,None,Seattle,-122.38543999999999,47.68778
530330031002,Loyal Heights,BALLARD,SCC6,98117,None,Seattle,-122.39125,47.68659
530330031003,Loyal Heights,BALLARD,SCC6,98117,None,Seattle,-122.38545,47.68228
530330031004,Sunset Hill,BALLARD,SCC6,98117,None,Seattle,-122.39506000000002,47.68123
530330031005,Sunset Hill,BALLARD,SCC6,98117,None,Seattle,-122.39998,47.68772
530330032001,Loyal Heights,BALLARD,SCC6,98117,None,Seattle,-122.39026000000001,47.67737
530330032002,Adams,BALLARD,SCC6,98107,Ballard,Seattle,-122.39026000000001,47.6731
530330032003,Adams,BALLARD,SCC6,98107,Ballard,Seattle,-122.39327,47.66834
530330032004,Sunset Hill,BALLARD,SCC6,98107,None,Seattle,-122.40015,47.66967
530330032005,Adams,BALLARD,SCC6,98107,None,Seattle,-122.39565,47.67305
530330032006,Sunset Hill,BALLARD,SCC6,98107,None,Seattle,-122.40377,47.67545
530330032007,Sunset Hill,BALLARD,SCC6,98117,None,Seattle,-122.39759,47.67749
530330033001,Whittier Heights,BALLARD,SCC6,98117,None,Seattle,-122.37135,47.67777
530330033002,West Woodland,BALLARD,SCC6,98107,None,Seattle,-122.36979,47.67418
530330033003,Adams,BALLARD,SCC6,98107,Ballard,Seattle,-122.3778,47.67418
530330033004,Adams,BALLARD,SCC6,98107,Ballard,Seattle,-122.38508999999999,47.67476
530330033005,Loyal Heights,BALLARD,SCC6,98117,None,Seattle,-122.38151,47.67796
530330034001,West Woodland,BALLARD,SCC6,98107,None,Seattle,-122.36176999999999,47.674170000000004
530330034002,Phinney Ridge,NO BROADER TERM,SCC6,98117,None,Seattle,-122.3617,47.67778
530330034003,West Woodland,BALLARD,SCC6,98107,None,Seattle,-122.36176,47.67048
530330035001,Phinney Ridge,NO BROADER TERM,SCC6,98103,None,Seattle,-122.35161000000001,47.67785
530330035002,Phinney Ridge,NO BROADER TERM,SCC6,98103,None,Seattle,-122.35205,47.67408
530330035003,Phinney Ridge,NO BROADER TERM,SCC6,98103,None,Seattle,-122.35238000000001,47.668620000000004
530330036001,Roosevelt,NO BROADER TERM,SCC4,98115,Roosevelt,Seattle,-122.31976,47.67712
530330036002,Green Lake,NO BROADER TERM,SCC6,98115,Green Lake,Seattle,-122.32383999999999,47.68127
530330036003,Green Lake,NO BROADER TERM,SCC6,98103,None,Seattle,-122.32845,47.6741
530330036004,Green Lake,NO BROADER TERM,SCC6,98115,Green Lake,Seattle,-122.32611999999999,47.67734
530330038001,Ravenna,NO BROADER TERM,SCC4,98115,None,Seattle,-122.29323000000001,47.679320000000004
530330038002,Ravenna,NO BROADER TERM,SCC4,98115,None,Seattle,-122.29836999999999,47.679520000000004
530330039001,Bryant,NO BROADER TERM,SCC4,98115,None,Seattle,-122.28558999999998,47.67967
530330039002,View Ridge,NO BROADER TERM,SCC4,98115,None,Seattle,-122.27776999999999,47.67905
530330040001,Sand Point,NO BROADER TERM,SCC4,98115,None,Seattle,-122.25787,47.68107
530330040002,View Ridge,NO BROADER TERM,SCC4,98115,None,Seattle,-122.27174,47.67925
530330041001,Windermere,NO BROADER TERM,SCC4,98115,None,Seattle,-122.26100000000001,47.67242
530330041002,Windermere,NO BROADER TERM,SCC4,98105,None,Seattle,-122.26626999999999,47.66695
530330041003,Laurelhurst,NO BROADER TERM,SCC4,98105,None,Seattle,-122.27578999999999,47.659040000000005
530330041004,Laurelhurst,NO BROADER TERM,SCC4,98105,None,Seattle,-122.27873999999998,47.664390000000004
530330041005,Laurelhurst,NO BROADER TERM,SCC4,98105,None,Seattle,-122.28563,47.65915
530330041006,Laurelhurst,NO BROADER TERM,SCC4,98105,None,Seattle,-122.27807,47.6536
530330042001,Windermere,NO BROADER TERM,SCC4,98115,None,Seattle,-122.27322,47.672709999999995
530330042002,Bryant,NO BROADER TERM,SCC4,98105,None,Seattle,-122.28221,47.670840000000005
530330042003,Ravenna,NO BROADER TERM,SCC4,98105,None,Seattle,-122.29037,47.66471
530330042004,Bryant,NO BROADER TERM,SCC4,98105,None,Seattle,-122.28772,47.67107
530330042005,Ravenna,NO BROADER TERM,SCC4,98115,None,Seattle,-122.29328000000001,47.67218
530330043011,Ravenna,NO BROADER TERM,SCC4,98105,Ravenna,Seattle,-122.29786999999999,47.664559999999994
530330043012,Ravenna,NO BROADER TERM,SCC4,98115,None,Seattle,-122.29848,47.672109999999996
530330043013,Ravenna,NO BROADER TERM,SCC4,98105,None,Seattle,-122.30361,47.67196
530330043021,University District,UNIVERSITY DISTRICT,SCC4,98105,Ravenna,Seattle,-122.30515,47.66493
530330043022,University District,UNIVERSITY DISTRICT,SCC4,98105,Ravenna,Seattle,-122.30233999999999,47.664590000000004
530330044001,Ravenna,NO BROADER TERM,SCC4,98105,None,Seattle,-122.3092,47.67217
530330044002,Roosevelt,NO BROADER TERM,SCC4,98115,Roosevelt,Seattle,-122.31463000000001,47.67217
530330044003,University District,UNIVERSITY DISTRICT,SCC4,98105,None,Seattle,-122.3092,47.6667
530330044004,University District,UNIVERSITY DISTRICT,SCC4,98105,University District Northwest,Seattle,-122.31465,47.66673
530330045001,University District,UNIVERSITY DISTRICT,SCC4,98105,None,Seattle,-122.31952,47.66854
530330045002,Wallingford,NO BROADER TERM,SCC6,98105,None,Seattle,-122.32505,47.66861
530330046001,Green Lake,NO BROADER TERM,SCC6,98103,None,Seattle,-122.33968999999999,47.6725
530330046002,Wallingford,NO BROADER TERM,SCC6,98103,None,Seattle,-122.33226,47.67001
530330046003,Wallingford,NO BROADER TERM,SCC6,98103,None,Seattle,-122.3326,47.66637
530330047001,West Woodland,BALLARD,SCC6,98107,None,Seattle,-122.36984,47.670120000000004
530330047002,West Woodland,BALLARD,SCC6,98107,Ballard-Interbay-Northend,Seattle,-122.37167,47.66363
530330047003,Adams,BALLARD,SCC6,98107,Ballard,Seattle,-122.37762,47.67026
530330047004,Adams,BALLARD,SCC6,98107,Ballard,Seattle,-122.38297,47.667120000000004
530330048001,Phinney Ridge,NO BROADER TERM,SCC6,98107,None,Seattle,-122.35949,47.66588
530330048002,Fremont,NO BROADER TERM,SCC6,98107,None,Seattle,-122.35819,47.65967
530330048003,Fremont,NO BROADER TERM,SCC6,98107,None,Seattle,-122.36089,47.65596
530330048004,West Woodland,BALLARD,SCC6,98107,None,Seattle,-122.36384,47.66405
530330049001,Fremont,NO BROADER TERM,SCC6,98103,None,Seattle,-122.35136000000001,47.66359
530330049002,Fremont,NO BROADER TERM,SCC6,98103,Fremont,Seattle,-122.34965,47.65202
530330049003,Fremont,NO BROADER TERM,SCC6,98103,Fremont,Seattle,-122.35257,47.653620000000004
530330049004,Fremont,NO BROADER TERM,SCC6,98103,None,Seattle,-122.35271999999999,47.65781
530330049005,Fremont,NO BROADER TERM,SCC6,98103,None,Seattle,-122.35053,47.66052
530330050001,Wallingford,NO BROADER TERM,SCC4,98103,Wallingford,Seattle,-122.34083000000001,47.66271
530330050002,Wallingford,NO BROADER TERM,SCC4,98103,Wallingford,Seattle,-122.34163000000001,47.65791
530330050003,Fremont,NO BROADER TERM,SCC4,98103,Wallingford,Seattle,-122.34411000000001,47.66055
530330051001,Wallingford,NO BROADER TERM,SCC4,98103,Wallingford,Seattle,-122.33231,47.66267
530330051002,Wallingford,NO BROADER TERM,SCC4,98103,None,Seattle,-122.33215,47.65791
530330051003,Wallingford,NO BROADER TERM,SCC4,98103,None,Seattle,-122.33228999999999,47.65384
530330052001,University District,UNIVERSITY DISTRICT,SCC4,98105,University District Northwest,Seattle,-122.32096999999999,47.6593
530330052002,University District,UNIVERSITY DISTRICT,SCC4,98105,University District Northwest,Seattle,-122.31988,47.65651
530330052003,Wallingford,NO BROADER TERM,SCC4,98105,None,Seattle,-122.32493000000001,47.65656
530330052004,Wallingford,NO BROADER TERM,SCC4,98105,None,Seattle,-122.32524,47.66211
530330052005,University District,UNIVERSITY DISTRICT,SCC4,98105,University District Northwest,Seattle,-122.31946,47.6626
530330053011,University District,UNIVERSITY DISTRICT,SCC4,98105,University District Northwest,Seattle,-122.30868000000001,47.663059999999994
530330053012,University District,UNIVERSITY DISTRICT,SCC4,98105,University District Northwest,Seattle,-122.31414,47.663090000000004
530330053013,University District,UNIVERSITY DISTRICT,SCC4,98105,University District Northwest,Seattle,-122.31486000000001,47.65981
530330053014,University District,UNIVERSITY DISTRICT,SCC4,98105,University District Northwest,Seattle,-122.31492,47.65759
530330053021,University District,UNIVERSITY DISTRICT,SCC4,98105,University Campus,Seattle,-122.31522,47.6559
530330053022,University District,UNIVERSITY DISTRICT,SCC4,98195,University Campus,Seattle,-122.31173000000001,47.65133
530330053023,University District,UNIVERSITY DISTRICT,SCC4,98195,None,Seattle,-122.30146,47.65576
530330054001,Wallingford,NO BROADER TERM,SCC4,98103,None,Seattle,-122.33843999999999,47.65381
530330054002,Wallingford,NO BROADER TERM,SCC4,98103,None,Seattle,-122.33471000000002,47.64883
530330054003,Wallingford,NO BROADER TERM,SCC4,98103,Fremont,Seattle,-122.34248999999998,47.65027
530330054004,Fremont,NO BROADER TERM,SCC4,98103,None,Seattle,-122.34395,47.65465
530330056001,Briarcliff,MAGNOLIA,SCC7,98199,None,Seattle,-122.40683999999999,47.64979
530330056002,Briarcliff,MAGNOLIA,SCC7,98199,None,Seattle,-122.41436999999999,47.64942
530330056003,Briarcliff,MAGNOLIA,SCC7,98199,None,Seattle,-122.40535,47.63771
530330056004,Briarcliff,MAGNOLIA,SCC7,98199,None,Seattle,-122.40503000000001,47.642590000000006
530330056005,Southeast Magnolia,MAGNOLIA,SCC7,98199,None,Seattle,-122.39461999999999,47.63628
530330057001,Lawton Park,MAGNOLIA,SCC7,98199,None,Seattle,-122.4159,47.661640000000006
530330057002,Southeast Magnolia,MAGNOLIA,SCC7,98199,None,Seattle,-122.39411000000001,47.64828
530330057003,Southeast Magnolia,MAGNOLIA,SCC7,98199,None,Seattle,-122.39719,47.64281
530330057004,Lawton Park,MAGNOLIA,SCC7,98199,None,Seattle,-122.40025,47.65044
530330057005,Lawton Park,MAGNOLIA,SCC7,98199,None,Seattle,-122.39963999999999,47.662690000000005
530330057006,Lawton Park,MAGNOLIA,SCC7,98199,None,Seattle,-122.39952,47.65676
530330058011,Lawton Park,MAGNOLIA,SCC7,98199,None,Seattle,-122.38503999999999,47.650929999999995
530330058012,Lawton Park,MAGNOLIA,SCC7,98199,None,Seattle,-122.38999,47.65092
530330058013,Lawton Park,MAGNOLIA,SCC7,98199,None,Seattle,-122.39121000000002,47.655359999999995
530330058014,Interbay,INTERBAY,SCC7,98199,Ballard-Interbay-Northend,Seattle,-122.38422,47.65593
530330058021,Southeast Magnolia,MAGNOLIA,SCC7,98199,None,Seattle,-122.38649,47.64568
530330058022,West Queen Anne,QUEEN ANNE,SCC7,98119,Ballard-Interbay-Northend,Seattle,-122.37541,47.6375
530330058023,Interbay,INTERBAY,SCC7,98119,Ballard-Interbay-Northend,Seattle,-122.38203999999999,47.634859999999996
530330059001,North Queen Anne,QUEEN ANNE,SCC7,98119,None,Seattle,-122.36968999999999,47.65383
530330059002,North Queen Anne,QUEEN ANNE,SCC7,98119,None,Seattle,-122.37148,47.64905
530330059003,North Queen Anne,QUEEN ANNE,SCC7,98119,None,Seattle,-122.36426000000002,47.64857
530330059004,North Queen Anne,QUEEN ANNE,SCC7,98119,None,Seattle,-122.37111999999999,47.64331
530330059005,North Queen Anne,QUEEN ANNE,SCC7,98119,None,Seattle,-122.36451000000001,47.643029999999996
530330060001,East Queen Anne,QUEEN ANNE,SCC7,98109,None,Seattle,-122.34426,47.641020000000005
530330060002,North Queen Anne,QUEEN ANNE,SCC7,98109,None,Seattle,-122.35083,47.64325
530330060003,North Queen Anne,QUEEN ANNE,SCC7,98119,None,Seattle,-122.35772,47.64327
530330060004,North Queen Anne,QUEEN ANNE,SCC7,98109,None,Seattle,-122.35700000000001,47.64869
530330061001,Portage Bay,CAPITOL HILL,SCC3,98102,None,Seattle,-122.31997,47.64816
530330061002,Montlake,CAPITOL HILL,SCC3,98102,None,Seattle,-122.31785,47.64222
530330061003,Eastlake,CASCADE,SCC4,98102,Eastlake,Seattle,-122.32453000000001,47.6465
530330061004,Eastlake,CASCADE,SCC4,98102,Eastlake,Seattle,-122.32600000000001,47.64137
530330062001,Madison Park,CAPITOL HILL,SCC3,98112,None,Seattle,-122.29691000000001,47.637890000000006
530330062002,Montlake,CAPITOL HILL,SCC3,98112,None,Seattle,-122.30592,47.641290000000005
530330062003,Stevens,CAPITOL HILL,SCC3,98112,None,Seattle,-122.30904,47.63588
530330063001,Madison Park,CAPITOL HILL,SCC3,98112,None,Seattle,-122.27863,47.63893
530330063002,Harrison/Denny-Blaine,CENTRAL AREA,SCC3,98112,None,Seattle,-122.28164,47.63007
530330063003,Madison Park,CAPITOL HILL,SCC3,98112,None,Seattle,-122.28268999999999,47.63775
530330063004,Madison Park,CAPITOL HILL,SCC3,98112,None,Seattle,-122.28946,47.634029999999996
530330064001,Stevens,CAPITOL HILL,SCC3,98112,None,Seattle,-122.29956000000001,47.62808
530330064002,Stevens,CAPITOL HILL,SCC3,98112,None,Seattle,-122.31058,47.62879
530330064003,Stevens,CAPITOL HILL,SCC3,98112,None,Seattle,-122.30548,47.62876
530330065001,Broadway,CAPITOL HILL,SCC3,98112,None,Seattle,-122.31687,47.63388
530330065002,Broadway,CAPITOL HILL,SCC3,98102,None,Seattle,-122.32263,47.627309999999994
530330065003,Broadway,CAPITOL HILL,SCC3,98102,None,Seattle,-122.31657,47.62624
530330066001,South Lake Union,CASCADE,SCC3,98102,Eastlake,Seattle,-122.32711,47.63046
530330066002,Eastlake,CASCADE,SCC4,98102,Eastlake,Seattle,-122.32593,47.6374
530330067001,Westlake,CASCADE,SCC7,98109,None,Seattle,-122.34156000000002,47.63238
530330067002,Lower Queen Anne,QUEEN ANNE,SCC7,98109,Uptown,Seattle,-122.34555,47.6273
530330067003,East Queen Anne,QUEEN ANNE,SCC7,98109,None,Seattle,-122.34787,47.63146
530330067004,East Queen Anne,QUEEN ANNE,SCC7,98109,None,Seattle,-122.34711000000001,47.63599
530330068001,East Queen Anne,QUEEN ANNE,SCC7,98109,None,Seattle,-122.35318000000001,47.63613
530330068002,West Queen Anne,QUEEN ANNE,SCC7,98119,None,Seattle,-122.35897,47.63596
530330069001,West Queen Anne,QUEEN ANNE,SCC7,98119,None,Seattle,-122.36497,47.637170000000005
530330069002,West Queen Anne,QUEEN ANNE,SCC7,98119,None,Seattle,-122.36673,47.63308
530330069003,West Queen Anne,QUEEN ANNE,SCC7,98119,None,Seattle,-122.3657,47.62968
530330069004,West Queen Anne,QUEEN ANNE,SCC7,98119,None,Seattle,-122.37041,47.63754
530330070001,East Queen Anne,QUEEN ANNE,SCC7,98109,None,Seattle,-122.35368999999999,47.63004
530330070002,Lower Queen Anne,QUEEN ANNE,SCC7,98119,Uptown,Seattle,-122.36251000000001,47.62572
530330070003,Lower Queen Anne,QUEEN ANNE,SCC7,98109,None,Seattle,-122.35338999999999,47.62641
530330070004,Lower Queen Anne,QUEEN ANNE,SCC7,98119,Upper Queen Anne,Seattle,-122.35921,47.63095
530330070005,Lower Queen Anne,QUEEN ANNE,SCC7,98119,Uptown,Seattle,-122.35857,47.62575
530330070006,Lower Queen Anne,QUEEN ANNE,SCC7,98119,None,Seattle,-122.36001999999999,47.6282
530330071001,Lower Queen Anne,QUEEN ANNE,SCC7,98119,Uptown,Seattle,-122.36356,47.62345
530330071002,Lower Queen Anne,QUEEN ANNE,SCC7,98109,Uptown,Seattle,-122.35361,47.62173
530330072001,South Lake Union,CASCADE,SCC7,98109,South Lake Union,Seattle,-122.34262,47.61995
530330072002,Belltown,DOWNTOWN,SCC7,98121,Belltown,Seattle,-122.34401000000001,47.61712
530330072003,Belltown,DOWNTOWN,SCC7,98121,Belltown,Seattle,-122.34794,47.61759
530330073001,South Lake Union,CASCADE,SCC7,98109,South Lake Union,Seattle,-122.33108,47.62234
530330073002,Belltown,DOWNTOWN,SCC7,98101,Denny Triangle,Seattle,-122.33207,47.61741
530330073003,South Lake Union,CASCADE,SCC7,98109,South Lake Union,Seattle,-122.33636000000001,47.61988
530330074011,Broadway,CAPITOL HILL,SCC3,98102,Capitol Hill,Seattle,-122.32481999999999,47.62413
530330074012,Broadway,CAPITOL HILL,SCC3,98102,Capitol Hill,Seattle,-122.32198999999999,47.62307
530330074013,Broadway,CAPITOL HILL,SCC3,98102,Capitol Hill,Seattle,-122.32743,47.6226
530330074014,Broadway,CAPITOL HILL,SCC3,98102,Capitol Hill,Seattle,-122.32485,47.622
530330074021,Broadway,CAPITOL HILL,SCC3,98102,Capitol Hill,Seattle,-122.3239,47.6199
530330074022,Broadway,CAPITOL HILL,SCC3,98122,Capitol Hill,Seattle,-122.32338999999999,47.61758
530330074023,Broadway,CAPITOL HILL,SCC3,98122,Capitol Hill,Seattle,-122.32658,47.618120000000005
530330075001,Broadway,CAPITOL HILL,SCC3,98112,Capitol Hill,Seattle,-122.31416999999999,47.62213
530330075002,Broadway,CAPITOL HILL,SCC3,98122,Capitol Hill,Seattle,-122.31416000000002,47.617059999999995
530330075003,Broadway,CAPITOL HILL,SCC3,98102,Capitol Hill,Seattle,-122.31832,47.622679999999995
530330075004,Broadway,CAPITOL HILL,SCC3,98122,Pike/Pine,Seattle,-122.31743,47.614740000000005
530330075005,Broadway,CAPITOL HILL,SCC3,98122,Capitol Hill,Seattle,-122.31878999999999,47.61867
530330076001,Stevens,CAPITOL HILL,SCC3,98112,Madison-Miller,Seattle,-122.30751000000001,47.62423
530330076002,Stevens,CAPITOL HILL,SCC3,98112,Madison-Miller,Seattle,-122.30528999999999,47.6207
530330076003,Stevens,CAPITOL HILL,SCC3,98112,None,Seattle,-122.31026000000001,47.62105
530330077001,Harrison/Denny-Blaine,CENTRAL AREA,SCC3,98112,None,Seattle,-122.29406999999999,47.6192
530330077002,Stevens,CAPITOL HILL,SCC3,98112,None,Seattle,-122.29898,47.62304
530330077003,Mann,CENTRAL AREA,SCC3,98122,None,Seattle,-122.29928000000001,47.6152
530330077004,Mann,CENTRAL AREA,SCC3,98122,None,Seattle,-122.29975,47.61918
530330078001,Madrona,CENTRAL AREA,SCC3,98122,None,Seattle,-122.28493999999999,47.61182
530330078002,Madrona,CENTRAL AREA,SCC3,98122,None,Seattle,-122.28785,47.60923
530330078003,Madrona,CENTRAL AREA,SCC3,98122,None,Seattle,-122.28889,47.613820000000004
530330078004,Harrison/Denny-Blaine,CENTRAL AREA,SCC3,98112,None,Seattle,-122.28826000000001,47.61987
530330079001,Minor,CENTRAL AREA,SCC3,98122,23rd & Union-Jackson,Seattle,-122.3041,47.613859999999995
530330079002,Minor,CENTRAL AREA,SCC3,98122,None,Seattle,-122.30702,47.61392
530330079003,Minor,CENTRAL AREA,SCC3,98122,None,Seattle,-122.31083000000001,47.61224
530330079004,Minor,CENTRAL AREA,SCC3,98122,Capitol Hill,Seattle,-122.31081,47.61528
530330079005,Stevens,CAPITOL HILL,SCC3,98122,Madison-Miller,Seattle,-122.30917,47.61757
530330080011,Belltown,DOWNTOWN,SCC7,98121,Belltown,Seattle,-122.35038999999999,47.616820000000004
530330080012,Belltown,DOWNTOWN,SCC7,98121,Belltown,Seattle,-122.34612,47.61432
530330080013,Belltown,DOWNTOWN,SCC7,98121,Belltown,Seattle,-122.35521999999999,47.61636
530330080014,Belltown,DOWNTOWN,SCC7,98121,Belltown,Seattle,-122.35101,47.61486
530330080015,Belltown,DOWNTOWN,SCC7,98121,Belltown,Seattle,-122.35288999999999,47.615970000000004
530330080021,Pike-Market,DOWNTOWN,SCC7,98121,Belltown,Seattle,-122.34257,47.61177
530330080022,Belltown,DOWNTOWN,SCC7,98121,Belltown,Seattle,-122.34743,47.61235
530330081001,Central Business District,DOWNTOWN,SCC7,98101,Commercial Core,Seattle,-122.33811999999999,47.60532
530330081002,Central Business District,DOWNTOWN,SCC7,98101,Commercial Core,Seattle,-122.3343,47.60683
530330081003,Pike-Market,DOWNTOWN,SCC7,98101,Commercial Core,Seattle,-122.34101000000001,47.60889
530330082001,Central Business District,DOWNTOWN,SCC7,98101,Commercial Core,Seattle,-122.33311,47.61079
530330082002,First Hill,DOWNTOWN,SCC7,98104,First Hill,Seattle,-122.32895,47.608270000000005
530330082003,First Hill,DOWNTOWN,SCC7,98101,First Hill,Seattle,-122.32994,47.61081
530330083001,First Hill,DOWNTOWN,SCC3,98101,First Hill,Seattle,-122.32635,47.60982
530330083002,Broadway,CAPITOL HILL,SCC7,98101,Pike/Pine,Seattle,-122.32943,47.61354
530330084001,Broadway,CAPITOL HILL,SCC3,98122,Pike/Pine,Seattle,-122.323,47.61488
530330084002,First Hill,DOWNTOWN,SCC3,98104,First Hill,Seattle,-122.32303999999999,47.61118
530330084003,Broadway,CAPITOL HILL,SCC3,98122,Pike/Pine,Seattle,-122.32708000000001,47.61499
530330085001,First Hill,DOWNTOWN,SCC3,98104,First Hill,Seattle,-122.32717,47.60624
530330085002,Yesler Terrace,DOWNTOWN,SCC3,98104,First Hill,Seattle,-122.32225,47.60559
530330085003,Yesler Terrace,DOWNTOWN,SCC3,98104,First Hill,Seattle,-122.3255,47.60326
530330086001,Minor,CENTRAL AREA,SCC3,98122,12th Avenue,Seattle,-122.31475,47.60901
530330086002,First Hill,DOWNTOWN,SCC3,98122,12th Avenue,Seattle,-122.3187,47.60805
530330086003,Minor,CENTRAL AREA,SCC3,98122,12th Avenue,Seattle,-122.31653,47.603229999999996
530330087001,Minor,CENTRAL AREA,SCC3,98122,None,Seattle,-122.3079,47.60821
530330087002,Minor,CENTRAL AREA,SCC3,98122,23rd & Union-Jackson,Seattle,-122.30474,47.604040000000005
530330087003,Minor,CENTRAL AREA,SCC3,98122,23rd & Union-Jackson,Seattle,-122.30984,47.603809999999996
530330088001,Mann,CENTRAL AREA,SCC3,98122,None,Seattle,-122.29771000000001,47.61099
530330088002,Mann,CENTRAL AREA,SCC3,98122,23rd & Union-Jackson,Seattle,-122.29761,47.60666
530330088003,Mann,CENTRAL AREA,SCC3,98122,23rd & Union-Jackson,Seattle,-122.29755,47.602959999999996
530330089001,Leschi,CENTRAL AREA,SCC3,98144,None,Seattle,-122.28898999999998,47.59673
530330089002,Leschi,CENTRAL AREA,SCC3,98144,None,Seattle,-122.29458999999999,47.595040000000004
530330089003,Atlantic,CENTRAL AREA,SCC3,98144,23rd & Union-Jackson,Seattle,-122.2974,47.59984
530330089004,Atlantic,CENTRAL AREA,SCC3,98144,None,Seattle,-122.29997,47.59505
530330090001,Atlantic,CENTRAL AREA,SCC3,98144,23rd & Union-Jackson,Seattle,-122.30426999999999,47.5974
530330090002,Atlantic,CENTRAL AREA,SCC3,98144,23rd & Union-Jackson,Seattle,-122.31177,47.59875
530330091001,International District,DOWNTOWN,SCC2,98104,Chinatown-International District,Seattle,-122.32033999999999,47.59875
530330091002,International District,DOWNTOWN,SCC2,98104,Chinatown-International District,Seattle,-122.32571999999999,47.59751
530330092001,International District,DOWNTOWN,SCC2,98104,Chinatown-International District,Seattle,-122.32593999999999,47.60035
530330092002,Pioneer Square,DOWNTOWN,SCC7,98104,Pioneer Square,Seattle,-122.33338,47.60041
530330093001,Industrial District,NO BROADER TERM,SCC2,98134,Greater Duwamish,Seattle,-122.32143,47.59066
530330093002,Industrial District,NO BROADER TERM,SCC2,98134,Greater Duwamish,Seattle,-122.33533999999999,47.589459999999995
530330093003,Industrial District,NO BROADER TERM,SCC2,98134,Greater Duwamish,Seattle,-122.32926,47.569559999999996
530330094001,North Beacon Hill,BEACON HILL,SCC2,98144,North Beacon Hill,Seattle,-122.31546999999999,47.58798
530330094002,Atlantic,CENTRAL AREA,SCC3,98144,None,Seattle,-122.30775,47.591409999999996
530330094003,North Beacon Hill,BEACON HILL,SCC2,98144,None,Seattle,-122.3073,47.58339
530330094004,North Beacon Hill,BEACON HILL,SCC2,98144,North Beacon Hill,Seattle,-122.31459,47.58419
530330094005,North Beacon Hill,BEACON HILL,SCC2,98144,None,Seattle,-122.31326999999999,47.590340000000005
530330095001,Mount Baker,RAINIER VALLEY,SCC3,98144,None,Seattle,-122.29026999999999,47.58592
530330095002,Mount Baker,RAINIER VALLEY,SCC3,98144,North Rainier,Seattle,-122.29805,47.58679
530330095003,Mount Baker,RAINIER VALLEY,SCC2,98144,None,Seattle,-122.28606,47.57654
530330095004,Mount Baker,RAINIER VALLEY,SCC2,98144,North Rainier,Seattle,-122.29451,47.57734
530330096001,North Admiral,WEST SEATTLE,SCC1,98126,None,Seattle,-122.38091000000001,47.58497
530330096002,North Admiral,WEST SEATTLE,SCC1,98116,Admiral,Seattle,-122.38637,47.583290000000005
530330096003,North Admiral,WEST SEATTLE,SCC1,98116,None,Seattle,-122.39385,47.58374
530330096004,North Admiral,WEST SEATTLE,SCC1,98116,None,Seattle,-122.38885,47.58788
530330096005,North Admiral,WEST SEATTLE,SCC1,98116,None,Seattle,-122.38803,47.5906
530330097011,Alki,WEST SEATTLE,SCC1,98116,None,Seattle,-122.40586,47.57663
530330097012,Alki,WEST SEATTLE,SCC1,98116,None,Seattle,-122.41146,47.57567
530330097013,Alki,WEST SEATTLE,SCC1,98116,None,Seattle,-122.41426000000001,47.57465
530330097014,Alki,WEST SEATTLE,SCC1,98116,None,Seattle,-122.4043,47.56629
530330097021,North Admiral,WEST SEATTLE,SCC1,98116,None,Seattle,-122.39227,47.57685
530330097022,Genesee,WEST SEATTLE,SCC1,98116,None,Seattle,-122.39258999999998,47.56811
530330097023,Genesee,WEST SEATTLE,SCC1,98116,None,Seattle,-122.39511,47.56211
530330097024,Genesee,WEST SEATTLE,SCC1,98116,None,Seattle,-122.39877,47.56881
530330097025,North Admiral,WEST SEATTLE,SCC1,98116,None,Seattle,-122.39901,47.5771
530330098001,North Admiral,WEST SEATTLE,SCC1,98116,Admiral,Seattle,-122.38373999999999,47.57867
530330098002,North Admiral,WEST SEATTLE,SCC1,98126,None,Seattle,-122.38011999999999,47.57414
530330098003,Genesee,WEST SEATTLE,SCC1,98126,None,Seattle,-122.37966999999999,47.56776
530330098004,Genesee,WEST SEATTLE,SCC1,98116,West Seattle Junction,Seattle,-122.38536,47.56596
530330098005,North Admiral,WEST SEATTLE,SCC1,98116,None,Seattle,-122.38682,47.57246
530330099001,North Admiral,WEST SEATTLE,SCC1,98126,None,Seattle,-122.37443999999999,47.571020000000004
530330099002,North Delridge,DELRIDGE,SCC1,98106,None,Seattle,-122.35887,47.564440000000005
530330099003,North Delridge,DELRIDGE,SCC1,98126,None,Seattle,-122.37106000000001,47.55972
530330099004,None,None,SCC1,98134,Greater Duwamish,Seattle,-122.35977,47.57685
530330100011,North Beacon Hill,BEACON HILL,SCC2,98108,None,Seattle,-122.30208,47.5713
530330100012,North Beacon Hill,BEACON HILL,SCC2,98108,None,Seattle,-122.3113,47.565940000000005
530330100013,Columbia City,RAINIER VALLEY,SCC2,98108,Columbia City,Seattle,-122.29873,47.56472
530330100021,North Beacon Hill,BEACON HILL,SCC2,98144,None,Seattle,-122.3139,47.576029999999996
530330100022,North Beacon Hill,BEACON HILL,SCC2,98144,North Beacon Hill,Seattle,-122.3111,47.57844
530330100023,North Beacon Hill,BEACON HILL,SCC2,98144,None,Seattle,-122.30581000000001,47.57823
530330100024,North Beacon Hill,BEACON HILL,SCC2,98144,None,Seattle,-122.30795,47.57349
530330101001,Seward Park,SEWARD PARK,SCC2,98118,None,Seattle,-122.27451,47.56609
530330101002,Columbia City,RAINIER VALLEY,SCC2,98118,None,Seattle,-122.27869,47.562259999999995
530330101003,Columbia City,RAINIER VALLEY,SCC2,98108,Columbia City,Seattle,-122.29328000000001,47.5646
530330101004,Columbia City,RAINIER VALLEY,SCC2,98108,None,Seattle,-122.29198999999998,47.56815
530330101005,Mount Baker,RAINIER VALLEY,SCC2,98118,None,Seattle,-122.28546999999999,47.56879
530330102001,Seward Park,SEWARD PARK,SCC2,98118,None,Seattle,-122.26583000000001,47.55592
530330102002,Seward Park,SEWARD PARK,SCC2,98118,None,Seattle,-122.25685,47.55225
530330102003,Seward Park,SEWARD PARK,SCC2,98118,None,Seattle,-122.27253999999999,47.54938
530330102004,Seward Park,SEWARD PARK,SCC2,98118,None,Seattle,-122.27252,47.555659999999996
530330103001,Columbia City,RAINIER VALLEY,SCC2,98118,None,Seattle,-122.27813,47.556909999999995
530330103002,Columbia City,RAINIER VALLEY,SCC2,98118,None,Seattle,-122.27831,47.54991
530330103003,Columbia City,RAINIER VALLEY,SCC2,98118,Othello,Seattle,-122.28379,47.549479999999996
530330103004,Columbia City,RAINIER VALLEY,SCC2,98118,Columbia City,Seattle,-122.28861,47.55695
530330103005,Columbia City,RAINIER VALLEY,SCC2,98118,Columbia City,Seattle,-122.28339,47.55683
530330104011,Mid-Beacon Hill,BEACON HILL,SCC2,98108,None,Seattle,-122.29481000000001,47.55725
530330104012,Mid-Beacon Hill,BEACON HILL,SCC2,98108,None,Seattle,-122.29751999999999,47.55427
530330104013,Mid-Beacon Hill,BEACON HILL,SCC2,98108,None,Seattle,-122.29409,47.5484
530330104021,Mid-Beacon Hill,BEACON HILL,SCC2,98108,None,Seattle,-122.31166,47.55085
530330104022,Mid-Beacon Hill,BEACON HILL,SCC2,98108,None,Seattle,-122.3087,47.557829999999996
530330104023,Mid-Beacon Hill,BEACON HILL,SCC2,98108,None,Seattle,-122.30376000000001,47.55048
530330104024,Mid-Beacon Hill,BEACON HILL,SCC2,98108,None,Seattle,-122.31493,47.55701
530330105001,Fairmount Park,WEST SEATTLE,SCC1,98126,None,Seattle,-122.37885,47.560179999999995
530330105002,Fairmount Park,WEST SEATTLE,SCC1,98136,None,Seattle,-122.38108999999999,47.55427
530330105003,Seaview,WEST SEATTLE,SCC1,98136,None,Seattle,-122.39176,47.5549
530330105004,Fairmount Park,WEST SEATTLE,SCC1,98116,West Seattle Junction,Seattle,-122.38413999999999,47.559259999999995
530330105005,Genesee,WEST SEATTLE,SCC1,98116,None,Seattle,-122.39036000000002,47.5598
530330106001,Gatewood,WEST SEATTLE,SCC1,98126,None,Seattle,-122.37911000000001,47.545770000000005
530330106002,Fairmount Park,WEST SEATTLE,SCC1,98136,Morgan Junction,Seattle,-122.38443000000001,47.54936
530330106003,Gatewood,WEST SEATTLE,SCC1,98136,Morgan Junction,Seattle,-122.38558,47.543079999999996
530330106004,Seaview,WEST SEATTLE,SCC1,98136,None,Seattle,-122.39186000000001,47.54332
530330106005,Seaview,WEST SEATTLE,SCC1,98136,None,Seattle,-122.3971,47.55061
530330106006,Seaview,WEST SEATTLE,SCC1,98136,None,Seattle,-122.38978999999999,47.54943
530330107011,High Point,DELRIDGE,SCC1,98106,None,Seattle,-122.36542,47.546040000000005
530330107012,Roxhill,DELRIDGE,SCC1,98126,None,Seattle,-122.3672,47.53702
530330107021,High Point,DELRIDGE,SCC1,98126,None,Seattle,-122.37296,47.55089
530330107022,High Point,DELRIDGE,SCC1,98126,None,Seattle,-122.37158000000001,47.54622
530330107023,High Point,DELRIDGE,SCC1,98126,None,Seattle,-122.37421,47.54273
530330108001,Riverview,DELRIDGE,SCC1,98106,None,Seattle,-122.3488,47.54675
530330108002,Riverview,DELRIDGE,SCC1,98106,None,Seattle,-122.35835,47.54302
530330108003,Riverview,DELRIDGE,SCC1,98106,None,Seattle,-122.35996999999999,47.55381
530330109001,Georgetown,NO BROADER TERM,SCC2,98108,Greater Duwamish,Seattle,-122.31171,47.53675
530330109002,Georgetown,NO BROADER TERM,SCC2,98108,Greater Duwamish,Seattle,-122.32864,47.54909
530330110011,Holly Park,BEACON HILL,SCC2,98118,Othello,Seattle,-122.28898000000001,47.54107
530330110012,Holly Park,BEACON HILL,SCC2,98118,Othello,Seattle,-122.28591999999999,47.54211
530330110013,South Beacon Hill,BEACON HILL,SCC2,98118,Othello,Seattle,-122.28478999999999,47.53437
530330110021,South Beacon Hill,BEACON HILL,SCC2,98108,None,Seattle,-122.29992,47.53881
530330110022,Holly Park,BEACON HILL,SCC2,98108,Othello,Seattle,-122.29511000000001,47.542159999999996
530330110023,Mid-Beacon Hill,BEACON HILL,SCC2,98108,None,Seattle,-122.30055,47.543690000000005
530330111011,Brighton,RAINIER VALLEY,SCC2,98118,None,Seattle,-122.2732,47.54079
530330111012,Brighton,RAINIER VALLEY,SCC2,98118,None,Seattle,-122.2776,47.53852
530330111013,Brighton,RAINIER VALLEY,SCC2,98118,None,Seattle,-122.27561999999999,47.53391
530330111014,Brighton,RAINIER VALLEY,SCC2,98118,None,Seattle,-122.28021000000001,47.54368
530330111021,Seward Park,SEWARD PARK,SCC2,98118,None,Seattle,-122.26401000000001,47.540079999999996
530330111022,Brighton,RAINIER VALLEY,SCC2,98118,None,Seattle,-122.27044,47.54367
530330111023,Brighton,RAINIER VALLEY,SCC2,98118,None,Seattle,-122.27133,47.53423
530330111024,Brighton,RAINIER VALLEY,SCC2,98118,None,Seattle,-122.26868,47.536429999999996
530330112001,South Park,NO BROADER TERM,SCC1,98108,South Park,Seattle,-122.32856000000001,47.5255
530330112002,South Park,NO BROADER TERM,SCC1,98108,Greater Duwamish,Seattle,-122.32813,47.53371
530330112003,South Park,NO BROADER TERM,SCC1,98108,South Park,Seattle,-122.31653999999999,47.524570000000004
530330113001,Highland Park,DELRIDGE,SCC1,98106,None,Seattle,-122.34087,47.5292
530330113002,Highland Park,DELRIDGE,SCC1,98106,None,Seattle,-122.34871000000001,47.51897
530330113003,Highland Park,DELRIDGE,SCC1,98106,None,Seattle,-122.35058000000001,47.52277
530330113004,Highland Park,DELRIDGE,SCC1,98106,None,Seattle,-122.3512,47.52766
530330113005,Highland Park,DELRIDGE,SCC1,98106,None,Seattle,-122.34983000000001,47.5312
530330114011,South Delridge,DELRIDGE,SCC1,98106,None,Seattle,-122.36448999999999,47.53099
530330114012,Roxhill,DELRIDGE,SCC1,98106,Westwood-Highland Park,Seattle,-122.36518999999998,47.52648
530330114013,South Delridge,DELRIDGE,SCC1,98106,None,Seattle,-122.35791,47.53113
530330114021,South Delridge,DELRIDGE,SCC1,98106,Westwood-Highland Park,Seattle,-122.36405,47.52299
530330114022,South Delridge,DELRIDGE,SCC1,98106,Westwood-Highland Park,Seattle,-122.3586,47.51947
530330114023,Roxhill,DELRIDGE,SCC1,98126,None,Seattle,-122.36967,47.51923
530330115001,Roxhill,DELRIDGE,SCC1,98126,None,Seattle,-122.37248999999998,47.53244
530330115002,Roxhill,DELRIDGE,SCC1,98126,None,Seattle,-122.37633000000001,47.525040000000004
530330115003,Gatewood,WEST SEATTLE,SCC1,98126,None,Seattle,-122.37831000000001,47.53349
530330116001,Gatewood,WEST SEATTLE,SCC1,98136,None,Seattle,-122.38423999999999,47.53776
530330116002,Gatewood,WEST SEATTLE,SCC1,98136,None,Seattle,-122.38491,47.531929999999996
530330116003,Fauntleroy,WEST SEATTLE,SCC1,98136,None,Seattle,-122.38592,47.52595
530330116004,Fauntleroy,WEST SEATTLE,SCC1,98136,None,Seattle,-122.38382,47.519529999999996
530330116005,Fauntleroy,WEST SEATTLE,SCC1,98136,None,Seattle,-122.39166999999999,47.52365
530330116006,Fauntleroy,WEST SEATTLE,SCC1,98136,None,Seattle,-122.39383000000001,47.53302
530330117001,South Beacon Hill,BEACON HILL,SCC2,98118,Rainier Beach,Seattle,-122.27891000000001,47.5254
530330117002,South Beacon Hill,BEACON HILL,SCC2,98118,None,Seattle,-122.28756000000001,47.51956
530330117003,South Beacon Hill,BEACON HILL,SCC2,98118,None,Seattle,-122.28476,47.525420000000004
530330117004,Rainier Beach,RAINIER VALLEY,SCC2,98118,None,Seattle,-122.2756,47.51488
530330118001,Dunlap,RAINIER VALLEY,SCC2,98118,None,Seattle,-122.26243999999998,47.52581
530330118002,Rainier Beach,RAINIER VALLEY,SCC2,98118,None,Seattle,-122.25711000000001,47.516000000000005
530330118003,Rainier Beach,RAINIER VALLEY,SCC2,98118,None,Seattle,-122.26388999999999,47.51681
530330118004,Dunlap,RAINIER VALLEY,SCC2,98118,Rainier Beach,Seattle,-122.27188999999998,47.52205
530330118005,Dunlap,RAINIER VALLEY,SCC2,98118,None,Seattle,-122.27438000000001,47.52865
530330118006,Dunlap,RAINIER VALLEY,SCC2,98118,Rainier Beach,Seattle,-122.26783,47.52565
530330119001,Rainier Beach,RAINIER VALLEY,SCC2,98178,None,South,-122.25218999999998,47.51128
530330119002,None,None,None,98178,None,South,-122.24866999999999,47.50492
530330119003,Rainier View,RAINIER VALLEY,SCC2,98178,None,South,-122.25783999999999,47.50507
530330119004,Rainier View,RAINIER VALLEY,SCC2,98178,None,South,-122.2652,47.498979999999996
530330119005,Rainier Beach,RAINIER VALLEY,SCC2,98178,None,South,-122.26593999999999,47.50867
530330120001,Arbor Heights,WEST SEATTLE,SCC1,98126,None,Seattle,-122.37543000000001,47.51413
530330120002,Arbor Heights,WEST SEATTLE,SCC1,98146,None,South,-122.38054,47.51008
530330120003,Arbor Heights,WEST SEATTLE,SCC1,98136,None,Seattle,-122.38600000000001,47.51481
530330121001,Fauntleroy,WEST SEATTLE,SCC1,98146,None,South,-122.38993,47.51039
530330121002,Arbor Heights,WEST SEATTLE,SCC1,98146,None,South,-122.37688,47.50355
530330260011,None,None,None,98178,None,South,-122.24203999999999,47.50609
530330264004,None,None,None,98168,None,South,-122.32226999999999,47.50997
530330264005,None,None,None,98108,None,Seattle,-122.31928,47.51616
530330265001,Highland Park,DELRIDGE,SCC1,98106,None,Seattle,-122.33588,47.515809999999995
